[{"OBJECT_NAME":"STARLINK-1506","OBJECT_ID":"2020-038T","EPOCH":"2026-03-09T15:50:48.887520","MEAN_MOTION":15.26134655,"ECCENTRICITY":0.00025141,"INCLINATION":53.0733,"RA_OF_ASC_NODE":202.5028,"ARG_OF_PERICENTER":227.7836,"MEAN_ANOMALY":132.2949,"EPHEMERIS_TYPE":0,"CLASSIFICATION_TYPE":"U","NORAD_CAT_ID":45747,"ELEMENT_SET_NO":999,"REV_AT_EPOCH":31668,"BSTAR":0.0009799682,"MEAN_MOTION_DOT":0.0002538,"MEAN_MOTION_DDOT":0},{"OBJECT_NAME":"STARLINK-31090","OBJECT_ID":"2023-203Y","EPOCH":"2026-03-09T23:20:32.506944","MEAN_MOTION":15.27569873,"ECCENTRICITY":0.00023137,"INCLINATION":43.0044,"RA_OF_ASC_NODE":57.7982,"ARG_OF_PERICENTER":279.134,"MEAN_ANOMALY":80.925,"EPHEMERIS_TYPE":0,"CLASSIFICATION_TYPE":"U","NORAD_CAT_ID":58640,"ELEMENT_SET_NO":999,"REV_AT_EPOCH":12370,"BSTAR":-8.387165e-6,"MEAN_MOTION_DOT":-4.93e-6,"MEAN_MOTION_DDOT":0}]
